CSS (TIANHE)            
1 48274U 21035A   24148.51678003  .00024891  00000+0  24323-3 0  9995
2 48274  41.4666 209.1795 0002319  88.4095 271.7011 15.65576035175865
